[{"OBJECT_NAME":"STARLINK-35446","OBJECT_ID":"2025-259L","EPOCH":"2026-03-09T22:45:45.286848","MEAN_MOTION":15.27602924,"ECCENTRICITY":0.00020187,"INCLINATION":43.0062,"RA_OF_ASC_NODE":272.6467,"ARG_OF_PERICENTER":282.9633,"MEAN_ANOMALY":77.0994,"EPHEMERIS_TYPE":0,"CLASSIFICATION_TYPE":"U","NORAD_CAT_ID":66432,"ELEMENT_SET_NO":999,"REV_AT_EPOCH":1953,"BSTAR":0.00084947857,"MEAN_MOTION_DOT":0.00023204,"MEAN_MOTION_DDOT":0},{"OBJECT_NAME":"OBJECT D","OBJECT_ID":"2026-023D","EPOCH":"2026-03-09T17:19:13.762848","MEAN_MOTION":15.22920595,"ECCENTRICITY":0.00208003,"INCLINATION":96.6418,"RA_OF_ASC_NODE":141.6791,"ARG_OF_PERICENTER":127.3034,"MEAN_ANOMALY":233.0105,"EPHEMERIS_TYPE":0,"CLASSIFICATION_TYPE":"U","NORAD_CAT_ID":67677,"ELEMENT_SET_NO":999,"REV_AT_EPOCH":485,"BSTAR":0.00050428287,"MEAN_MOTION_DOT":0.00011849,"MEAN_MOTION_DDOT":0}]
